[
 {
  "altim": 1009.2,
  "clouds": [],
  "cover": "CLR",
  "dewp": 8.3,
  "elev": 146,
  "fltCat": "VFR",
  "icaoId": "KBFL",
  "lat": 35.4342,
  "lon": -119.0552,
  "metarType": "METAR",
  "name": "Bakersfield/Meadows Arpt, CA, US",
  "obsTime": 1784598840,
  "qcField": 4,
  "rawOb": "METAR KBFL 210154Z 35009KT 10SM CLR 38/08 A2980 RMK AO2 SLP082 T03780083",
  "receiptTime": "2026-07-21T01:58:19.811Z",
  "reportTime": "2026-07-21T02:00:00.000Z",
  "slp": 1008.2,
  "temp": 37.8,
  "visib": "10+",
  "wdir": 350,
  "wspd": 9
 },
 {
  "altim": 1008.5,
  "clouds": [
   {
    "base": 10000,
    "cover": "BKN"
   }
  ],
  "cover": "BKN",
  "dewp": 13.9,
  "elev": 420,
  "fltCat": "VFR",
  "icaoId": "KFFZ",
  "lat": 33.4659,
  "lon": -111.7212,
  "metarType": "METAR",
  "name": "Mesa/Falcon Fld, AZ, US",
  "obsTime": 1784598840,
  "qcField": 6,
  "rawOb": "METAR KFFZ 210154Z AUTO 27008KT 10SM BKN100 38/14 A2978 RMK AO2 SLP055 T03830139",
  "receiptTime": "2026-07-21T01:58:20.170Z",
  "reportTime": "2026-07-21T02:00:00.000Z",
  "slp": 1005.5,
  "temp": 38.3,
  "visib": "10+",
  "wdir": 270,
  "wspd": 8
 },
 {
  "altim": 1012.6,
  "clouds": [],
  "cover": "CLR",
  "dewp": 12.8,
  "elev": 35,
  "fltCat": "VFR",
  "icaoId": "KSTS",
  "lat": 38.5037,
  "lon": -122.811,
  "metarType": "METAR",
  "name": "Santa Rosa/Schulz Arpt, CA, US",
  "obsTime": 1784598780,
  "qcField": 4,
  "rawOb": "METAR KSTS 210153Z 15007KT 10SM CLR 23/13 A2990 RMK AO2 SLP117 T02330128",
  "receiptTime": "2026-07-21T01:56:31.468Z",
  "reportTime": "2026-07-21T02:00:00.000Z",
  "slp": 1011.7,
  "temp": 23.3,
  "visib": "10+",
  "wdir": 150,
  "wspd": 7
 }
]